norad_id,name,regime,epoch,line1,line2,inclination,eccentricity,mean_motion,raan,arg_pericenter,mean_anomaly
40349,O3B FM11,MEO,22254.52463610,1 40349U 14083B   22254.52463610 -.00000028  00000-0  00000-0 0    13\,2 40349   0.0560   8.1609 0002443 178.1992 173.6363  5.00115353141140,0.056,0.0002443,5.00115353,8.1609,178.1992,173.6363
40349,O3B FM11,MEO,22255.32419859,1 40349U 14083B   22255.32419859 -.00000028  00000-0  00000-0 0    18\,2 40349   0.0560   8.1362 0002449 179.1404 172.7198  5.00115364141183,0.056,0.0002449,5.00115364,8.1362,179.1404,172.7198
40349,O3B FM11,MEO,22255.52408917,1 40349U 14083B   22255.52408917 -.00000028  00000-0  00000-0 0    13\,2 40349   0.0561   8.1287 0002450 179.3319 172.5358  5.00115372141195,0.0561,0.000245,5.00115372,8.1287,179.3319,172.5358
40349,O3B FM11,MEO,22256.12376100,1 40349U 14083B   22256.12376100 -.00000028  00000-0  00000-0 0    18\,2 40349   0.0561   8.0920 0002451 179.8185 172.0859  5.00115389141228,0.0561,0.0002451,5.00115389,8.092,179.8185,172.0859
40349,O3B FM11,MEO,22259.12212032,1 40349U 14083B   22259.12212032 -.00000029  00000-0  00000-0 0    15\,2 40349   0.0563   7.9980 0002466 182.8728 169.1254  5.00115425141370,0.0563,0.0002466,5.00115425,7.998,182.8728,169.1254
40349,O3B FM11,MEO,22259.72179205,1 40349U 14083B   22259.72179205 -.00000029  00000-0  00000-0 0    15\,2 40349   0.0563   7.9601 0002469 183.4560 168.5799  5.00115437141408,0.0563,0.0002469,5.00115437,7.9601,183.456,168.5799
40349,O3B FM11,MEO,22260.32146393,1 40349U 14083B   22260.32146393 -.00000029  00000-0  00000-0 0    15\,2 40349   0.0563   7.9601 0002472 184.0254 168.0104  5.00115435141435,0.0563,0.0002472,5.00115435,7.9601,184.0254,168.0104
40349,O3B FM11,MEO,22260.52135458,1 40349U 14083B   22260.52135458 -.00000029  00000-0  00000-0 0    17\,2 40349   0.0564   7.9577 0002473 184.2103 167.8277  5.00115432141440,0.0564,0.0002473,5.00115432,7.9577,184.2103,167.8277
40349,O3B FM11,MEO,22261.32091698,1 40349U 14083B   22261.32091698 -.00000029  00000-0  00000-0 0    13\,2 40349   0.0564   7.8968 0002477 185.1334 166.9653  5.00115431141473,0.0564,0.0002477,5.00115431,7.8968,185.1334,166.9653
40349,O3B FM11,MEO,22261.52080771,1 40349U 14083B   22261.52080771 -.00000029  00000-0  00000-0 0    15\,2 40349   0.0564   7.9532 0002480 185.3847 166.6574  5.00115418141492,0.0564,0.000248,5.00115418,7.9532,185.3847,166.6574
40349,O3B FM11,MEO,22262.32036981,1 40349U 14083B   22262.32036981 -.00000028  00000-0  00000-0 0    17\,2 40349   0.0564   7.9498 0002486 186.3272 165.7180  5.00115438141532,0.0564,0.0002486,5.00115438,7.9498,186.3272,165.718
40349,O3B FM11,MEO,22262.52026053,1 40349U 14083B   22262.52026053 -.00000028  00000-0  00000-0 0    18\,2 40349   0.0564   7.9486 0002487 186.5636 165.4828  5.00115427141541,0.0564,0.0002487,5.00115427,7.9486,186.5636,165.4828
40349,O3B FM11,MEO,22263.31982267,1 40349U 14083B   22263.31982267 -.00000028  00000-0  00000+0 0  6200\,2 40349   0.0565   7.9372 0002494 187.4915 164.5660  5.00115443141737,0.0565,0.0002494,5.00115443,7.9372,187.4915,164.566
40349,O3B FM11,MEO,22263.71960380,1 40349U 14083B   22263.71960380 -.00000027  00000-0  00000-0 0    19\,2 40349   0.0565   7.8755 0002496 187.9387 164.1802  5.00115446141592,0.0565,0.0002496,5.00115446,7.8755,187.9387,164.1802
40349,O3B FM11,MEO,22264.71905685,1 40349U 14083B   22264.71905685 -.00000025  00000-0  00000-0 0    15\,2 40349   0.0565   7.9041 0002502 189.1522 162.9379  5.00115432141651,0.0565,0.0002502,5.00115432,7.9041,189.1522,162.9379
40349,O3B FM11,MEO,22265.31872836,1 40349U 14083B   22265.31872836 -.00000024  00000-0  00000-0 0    12\,2 40349   0.0565   7.8378 0002502 189.7169 162.4394  5.00115456141687,0.0565,0.0002502,5.00115456,7.8378,189.7169,162.4394
40349,O3B FM11,MEO,22265.71850998,1 40349U 14083B   22265.71850998 -.00000023  00000-0  00000-0 0    10\,2 40349   0.0565   7.8863 0002502 190.0429 162.0649  5.00115422141705,0.0565,0.0002502,5.00115422,7.8863,190.0429,162.0649
40349,O3B FM11,MEO,22265.91840043,1 40349U 14083B   22265.91840043 -.00000023  00000-0  00000-0 0    12\,2 40349   0.0565   7.8284 0002500 190.1735 161.9923  5.00115438141712,0.0565,0.00025,5.00115438,7.8284,190.1735,161.9923
40349,O3B FM11,MEO,22266.51807214,1 40349U 14083B   22266.51807214 -.00000022  00000-0  00000-0 0    11\,2 40349   0.0566   7.8706 0002508 190.9265 161.1969  5.00115440141744,0.0566,0.0002508,5.0011544,7.8706,190.9265,161.1969
40349,O3B FM11,MEO,22267.11774441,1 40349U 14083B   22267.11774441 -.00000020  00000-0  00000-0 0    11\,2 40349   0.0566   7.8630 0002508 191.4409 160.6902  5.00115405141771,0.0566,0.0002508,5.00115405,7.863,191.4409,160.6902
40349,O3B FM11,MEO,22267.51752550,1 40349U 14083B   22267.51752550 -.00000019  00000-0  00000+0 0  6217\,2 40349   0.0566   7.8542 0002514 192.0292 160.1107  5.00115412141946,0.0566,0.0002514,5.00115412,7.8542,192.0292,160.1107
40349,O3B FM11,MEO,22268.31708796,1 40349U 14083B   22268.31708796 -.00000018  00000-0  00000-0 0    11\,2 40349   0.0566   7.7789 0002519 192.8516 159.3636  5.00115411141834,0.0566,0.0002519,5.00115411,7.7789,192.8516,159.3636
40349,O3B FM11,MEO,22269.31654131,1 40349U 14083B   22269.31654131 -.00000016  00000-0  00000-0 0    13\,2 40349   0.0567   7.8196 0002525 193.9118 158.2628  5.00115385141889,0.0567,0.0002525,5.00115385,7.8196,193.9118,158.2628
40349,O3B FM11,MEO,22269.51643202,1 40349U 14083B   22269.51643202 -.00000016  00000-0  00000-0 0    12\,2 40349   0.0567   7.8105 0002526 194.1659 158.0179  5.00115377141894,0.0567,0.0002526,5.00115377,7.8105,194.1659,158.0179
40349,O3B FM11,MEO,22270.31599460,1 40349U 14083B   22270.31599460 -.00000015  00000-0  00000-0 0    17\,2 40349   0.0567   7.8020 0002533 195.1653 157.0268  5.00115361141939,0.0567,0.0002533,5.00115361,7.802,195.1653,157.0268
40349,O3B FM11,MEO,22270.51588531,1 40349U 14083B   22270.51588531 -.00000015  00000-0  00000-0 0    16\,2 40349   0.0567   7.8011 0002535 195.3729 156.8202  5.00115351141942,0.0567,0.0002535,5.00115351,7.8011,195.3729,156.8202
40349,O3B FM11,MEO,22271.31544775,1 40349U 14083B   22271.31544775 -.00000014  00000-0  00000-0 0    16\,2 40349   0.0568   7.7981 0002541 196.1535 156.0423  5.00115345141983,0.0568,0.0002541,5.00115345,7.7981,196.1535,156.0423
40349,O3B FM11,MEO,22271.51533840,1 40349U 14083B   22271.51533840 -.00000014  00000-0  00000-0 0    19\,2 40349   0.0568   7.8002 0002542 196.3661 155.8276  5.00115340141990,0.0568,0.0002542,5.0011534,7.8002,196.3661,155.8276
40349,O3B FM11,MEO,22271.71522911,1 40349U 14083B   22271.71522911 -.00000014  00000-0  00000+0 0  6226\,2 40349   0.0568   7.7969 0002544 196.5677 155.6293  5.00115329142155,0.0568,0.0002544,5.00115329,7.7969,196.5677,155.6293
40349,O3B FM11,MEO,22272.31490082,1 40349U 14083B   22272.31490082 -.00000014  00000-0  00000-0 0    18\,2 40349   0.0568   7.7941 0002549 197.2126 154.9868  5.00115328142033,0.0568,0.0002549,5.00115328,7.7941,197.2126,154.9868
40349,O3B FM11,MEO,22272.51479145,1 40349U 14083B   22272.51479145 -.00000015  00000-0  00000-0 0    18\,2 40349   0.0568   7.7986 0002550 197.4367 154.7583  5.00115322142040,0.0568,0.000255,5.00115322,7.7986,197.4367,154.7583
40349,O3B FM11,MEO,22273.71413457,1 40349U 14083B   22273.71413457 -.00000016  00000-0  00000-0 0    16\,2 40349   0.0569   7.7073 0002558 198.7139 153.5714  5.00115336142090,0.0569,0.0002558,5.00115336,7.7073,198.7139,153.5714
40349,O3B FM11,MEO,22274.31380602,1 40349U 14083B   22274.31380602 -.00000017  00000-0  00000-0 0    19\,2 40349   0.0569   7.8062 0002565 199.3131 152.8727  5.00115341142133,0.0569,0.0002565,5.00115341,7.8062,199.3131,152.8727
40349,O3B FM11,MEO,22274.91347743,1 40349U 14083B   22274.91347743 -.00000018  00000-0  00000-0 0    15\,2 40349   0.0569   7.7350 0002555 199.0600 153.1969  5.00115368142163,0.0569,0.0002555,5.00115368,7.735,199.06,153.1969
40349,O3B FM11,MEO,22276.31271083,1 40349U 14083B   22276.31271083 -.00000021  00000-0  00000-0 0    18\,2 40349   0.0569   7.7819 0002568 200.5861 151.6222  5.00115373142233,0.0569,0.0002568,5.00115373,7.7819,200.5861,151.6222
40349,O3B FM11,MEO,22276.51260147,1 40349U 14083B   22276.51260147 -.00000022  00000-0  00000-0 0    10\,2 40349   0.0570   7.7899 0002569 200.7611 151.4390  5.00115363142243,0.057,0.0002569,5.00115363,7.7899,200.7611,151.439
40349,O3B FM11,MEO,22277.31216393,1 40349U 14083B   22277.31216393 -.00000024  00000-0  00000-0 0    15\,2 40349   0.0570   7.7983 0002571 201.3674 150.8235  5.00115335142280,0.057,0.0002571,5.00115335,7.7983,201.3674,150.8235
40349,O3B FM11,MEO,22277.51205384,1 40349U 14083B   22277.51205384 -.00000024  00000-0  00000-0 0    15\,2 40349   0.0570   7.7458 0002580 202.1419 150.1010  5.00115373142289,0.057,0.000258,5.00115373,7.7458,202.1419,150.101
40349,O3B FM11,MEO,22278.71139775,1 40349U 14083B   22278.71139775 -.00000026  00000-0  00000-0 0    10\,2 40349   0.0570   7.8131 0002580 202.6493 149.5255  5.00115338142357,0.057,0.000258,5.00115338,7.8131,202.6493,149.5255
40349,O3B FM11,MEO,22279.31106965,1 40349U 14083B   22279.31106965 -.00000026  00000-0  00000-0 0    12\,2 40349   0.0570   7.8194 0002583 203.1890 148.9792  5.00115326142385,0.057,0.0002583,5.00115326,7.8194,203.189,148.9792
40349,O3B FM11,MEO,22279.51096029,1 40349U 14083B   22279.51096029 -.00000027  00000-0  00000-0 0    14\,2 40349   0.0570   7.8188 0002585 203.4601 148.7085  5.00115321142392,0.057,0.0002585,5.00115321,7.8188,203.4601,148.7085
40349,O3B FM11,MEO,22280.31052270,1 40349U 14083B   22280.31052270 -.00000027  00000-0  00000-0 0    14\,2 40349   0.0570   7.7685 0002589 204.3454 147.8731  5.00115323142438,0.057,0.0002589,5.00115323,7.7685,204.3454,147.8731
40349,O3B FM11,MEO,22280.51041305,1 40349U 14083B   22280.51041305 -.00000027  00000-0  00000-0 0    13\,2 40349   0.0570   7.8201 0002589 204.4284 147.7385  5.00115349142448,0.057,0.0002589,5.00115349,7.8201,204.4284,147.7385
